[{"OBJECT_NAME":"POLYITAN-1","OBJECT_ID":"2014-033AJ","EPOCH":"2026-03-09T22:27:50.258304","MEAN_MOTION":15.29568085,"ECCENTRICITY":0.00093607,"INCLINATION":98.1053,"RA_OF_ASC_NODE":86.0432,"ARG_OF_PERICENTER":127.248,"MEAN_ANOMALY":232.9614,"EPHEMERIS_TYPE":0,"CLASSIFICATION_TYPE":"U","NORAD_CAT_ID":40042,"ELEMENT_SET_NO":999,"REV_AT_EPOCH":63840,"BSTAR":0.00083772474,"MEAN_MOTION_DOT":0.00024003,"MEAN_MOTION_DDOT":0},{"OBJECT_NAME":"STARLINK-33533","OBJECT_ID":"2025-063AA","EPOCH":"2026-03-09T08:32:07.748736","MEAN_MOTION":15.30202346,"ECCENTRICITY":0.00012983,"INCLINATION":53.1604,"RA_OF_ASC_NODE":51.5014,"ARG_OF_PERICENTER":89.4968,"MEAN_ANOMALY":270.6182,"EPHEMERIS_TYPE":0,"CLASSIFICATION_TYPE":"U","NORAD_CAT_ID":63387,"ELEMENT_SET_NO":999,"REV_AT_EPOCH":5469,"BSTAR":0.0011671202,"MEAN_MOTION_DOT":0.0003437,"MEAN_MOTION_DDOT":0}]
